NORAD_CAT_ID,OBJECT_NAME,OBJECT_TYPE,EPOCH,MEAN_MOTION,ECCENTRICITY,INCLINATION,RA_OF_ASC_NODE,ARG_OF_PERICENTER,MEAN_ANOMALY,BSTAR,MEAN_MOTION_DOT,MEAN_MOTION_DDOT,TLE_LINE0,TLE_LINE1,TLE_LINE2,SEMIMAJOR_AXIS,PERIOD,APOGEE,PERIGEE,DECAYED
55767.0,STARLINK-5606,PAYLOAD,2024-04-04 14:32:55,14.98323225,0.0002781,70.0013,199.8848,266.0465,94.0376,-1.9349e-05,-3.24e-06,0.0,0 STARLINK-5606,1 55767U 23028AC  24095.60619336 -.00000324  00000-0 -19349-4 0  9990,2 55767  70.0013 199.8848 0002781 266.0465  94.0376 14.98323225 61068,6950.214,96.107,574.012,570.146,0.0
55767.0,STARLINK-5606,PAYLOAD,2024-04-04 16:09:02,14.98329099,0.0002838,70.0011,199.7159,265.2171,94.8664,-6.6267e-05,-8.84e-06,0.0,0 STARLINK-5606,1 55767U 23028AC  24095.67295085 -.00000884  00000-0 -66267-4 0  9990,2 55767  70.0011 199.7159 0002838 265.2171  94.8664 14.98329099 61072,6950.196,96.107,574.033,570.088,0.0
55767.0,STARLINK-5606,PAYLOAD,2024-04-05 12:58:46,14.9834123,0.0003124,70.001,197.5288,270.5291,89.551,7.5502e-05,8.08e-06,0.0,0 STARLINK-5606,1 55767U 23028AC  24096.54081661  .00000808  00000-0  75502-4 0  9996,2 55767  70.0010 197.5288 0003124 270.5291  89.5510 14.98341230 61196,6950.158,96.106,574.194,569.852,0.0
55767.0,STARLINK-5606,PAYLOAD,2024-04-05 14:34:54,14.98340507,0.0002995,70.001,197.3602,265.6955,94.3861,0.00010349,1.142e-05,0.0,0 STARLINK-5606,1 55767U 23028AC  24096.60757576  .00001142  00000-0  10349-3 0  9997,2 55767  70.0010 197.3602 0002995 265.6955  94.3861 14.98340507 61213,6950.16,96.106,574.107,569.944,0.0
55767.0,STARLINK-5606,PAYLOAD,2024-04-05 16:11:02,14.98342537,0.0003095,70.0011,197.1923,270.7954,89.285,9.062e-05,9.89e-06,0.0,0 STARLINK-5606,1 55767U 23028AC  24096.67433452  .00000989  00000-0  90620-4 0  9997,2 55767  70.0011 197.1923 0003095 270.7954  89.2850 14.98342537 61223,6950.154,96.106,574.17,569.868,0.0
55767.0,STARLINK-5606,PAYLOAD,2024-04-06 13:00:48,14.98321555,0.0002945,70.0026,195.0065,264.2092,95.8731,2.3915e-05,1.92e-06,0.0,0 STARLINK-5606,1 55767U 23028AC  24097.54223028  .00000192  00000-0  23915-4 0  9999,2 55767  70.0026 195.0065 0002945 264.2092  95.8731 14.98321555 61348,6950.219,96.108,574.131,570.037,0.0
55767.0,STARLINK-5606,PAYLOAD,2024-04-07 13:02:49,14.98333469,0.0003209,70.0006,192.4797,269.1342,90.9449,-8.6478e-05,-1.125e-05,0.0,0 STARLINK-5606,1 55767U 23028AC  24098.54362723 -.00001125  00000-0 -86478-4 0  9998,2 55767  70.0006 192.4797 0003209 269.1342  90.9449 14.98333469 61502,6950.182,96.107,574.277,569.817,0.0
55767.0,STARLINK-5606,PAYLOAD,2024-04-08 13:04:49,14.98334482,0.0003228,70.0005,189.9552,268.0984,91.9805,0.0001246,1.394e-05,0.0,0 STARLINK-5606,1 55767U 23028AC  24099.54502025  .00001394  00000-0  12460-3 0  9995,2 55767  70.0005 189.9552 0003228 268.0984  91.9805 14.98334482 61640,6950.179,96.107,574.288,569.801,0.0
55767.0,STARLINK-5606,PAYLOAD,2024-04-08 22:41:38,14.98333013,0.0003237,70.0005,188.9454,268.3491,91.7298,9.8512e-05,1.083e-05,0.0,0 STARLINK-5606,1 55767U 23028AC  24099.94558093  .00001083  00000-0  98512-4 0  9993,2 55767  70.0005 188.9454 0003237 268.3491  91.7298 14.98333013 61717,6950.184,96.107,574.298,569.799,0.0
55767.0,STARLINK-5606,PAYLOAD,2024-04-09 09:54:34,14.98330158,0.0003059,70.0009,187.7672,269.1203,90.9605,3.323e-05,3.04e-06,0.0,0 STARLINK-5606,1 55767U 23028AC  24100.41290436  .00000304  00000-0  33230-4 0  9993,2 55767  70.0009 187.7672 0003059 269.1203  90.9605 14.98330158 61778,6950.192,96.107,574.183,569.931,0.0
55767.0,STARLINK-5606,PAYLOAD,2024-04-09 22:43:39,14.98333443,0.0003052,70.0014,186.4221,265.7731,94.3079,3.8745e-06,-4.7e-07,0.0,0 STARLINK-5606,1 55767U 23028AC  24100.94698181 -.00000047  00000-0  38745-5 0  9992,2 55767  70.0014 186.4221 0003052 265.7731  94.3079 14.98333443 61864,6950.182,96.107,574.168,569.926,0.0
55767.0,STARLINK-5606,PAYLOAD,2024-04-10 11:32:44,14.98330486,0.0002956,70.0012,185.075,268.462,91.62,-8.0979e-05,-1.059e-05,0.0,0 STARLINK-5606,1 55767U 23028AC  24101.48106559 -.00001059  00000-0 -80979-4 0  9995,2 55767  70.0012 185.0750 0002956 268.4620  91.6200 14.98330486 61931,6950.191,96.107,574.111,570.002,0.0
55767.0,STARLINK-5606,PAYLOAD,2024-04-10 22:45:40,14.98328648,0.0002908,70.0013,183.8964,271.012,89.0705,-5.5489e-05,-7.55e-06,0.0,0 STARLINK-5606,1 55767U 23028AC  24101.94838559 -.00000755  00000-0 -55489-4 0  9998,2 55767  70.0013 183.8964 0002908 271.0120  89.0705 14.98328648 62015,6950.197,96.107,574.083,570.041,0.0
55767.0,STARLINK-5606,PAYLOAD,2024-04-11 13:10:52,14.9832951,0.0002983,70.0012,182.3822,271.4272,88.6546,-2.3694e-05,-3.76e-06,0.0,0 STARLINK-5606,1 55767U 23028AC  24102.54922412 -.00000376  00000-0 -23694-4 0  9999,2 55767  70.0012 182.3822 0002983 271.4272  88.6546 14.98329510 62091,6950.194,96.107,574.133,569.986,0.0
55767.0,STARLINK-5606,PAYLOAD,2024-04-11 14:47:00,14.98329958,0.0002976,70.0012,182.214,271.564,88.5178,-1.7296e-05,-2.99e-06,0.0,0 STARLINK-5606,1 55767U 23028AC  24102.61598367 -.00000299  00000-0 -17296-4 0  9990,2 55767  70.0012 182.2140 0002976 271.5640  88.5178 14.98329958 62114,6950.193,96.107,574.126,569.99,0.0
55767.0,STARLINK-5606,PAYLOAD,2024-04-12 14:49:01,14.98332326,0.0003117,70.0008,179.689,272.5201,87.5601,5.258e-05,5.34e-06,0.0,0 STARLINK-5606,1 55767U 23028AC  24103.61738015  .00000534  00000-0  52580-4 0  9992,2 55767  70.0008 179.6890 0003117 272.5201  87.5601 14.98332326 62262,6950.186,96.107,574.217,569.884,0.0
55767.0,STARLINK-5606,PAYLOAD,2024-04-13 14:51:02,14.98337183,0.0003088,70.0009,177.164,271.8028,88.2778,8.2178e-05,8.88e-06,0.0,0 STARLINK-5606,1 55767U 23028AC  24104.61877432  .00000888  00000-0  82178-4 0  9998,2 55767  70.0009 177.1640 0003088 271.8028  88.2778 14.98337183 62411,6950.171,96.107,574.182,569.889,0.0
55767.0,STARLINK-5606,PAYLOAD,2024-04-14 11:40:47,14.98324807,0.0002745,70.0019,174.9778,256.6929,103.3924,-6.2951e-05,-8.44e-06,0.0,0 STARLINK-5606,1 55767U 23028AC  24105.48666577 -.00000844  00000-0 -62951-4 0  9991,2 55767  70.0019 174.9778 0002745 256.6929 103.3924 14.98324807 62533,6950.209,96.107,573.982,570.166,0.0
55767.0,STARLINK-5606,PAYLOAD,2024-04-14 14:53:04,14.98325135,0.0002743,70.0018,174.6411,258.0453,102.0398,-5.8021e-05,-7.85e-06,0.0,0 STARLINK-5606,1 55767U 23028AC  24105.62018580 -.00000785  00000-0 -58021-4 0  9999,2 55767  70.0018 174.6411 0002743 258.0453 102.0398 14.98325135 62568,6950.208,96.107,573.979,570.166,0.0
55767.0,STARLINK-5606,PAYLOAD,2024-04-15 05:18:15,14.98336701,0.0002834,70.0014,173.1251,269.2588,90.8246,8.8397e-06,1.3e-07,0.0,0 STARLINK-5606,1 55767U 23028AC  24106.22101629  .00000013  00000-0  88397-5 0  9995,2 55767  70.0014 173.1251 0002834 269.2588  90.8246 14.98336701 62640,6950.172,96.107,574.007,570.067,0.0
55767.0,STARLINK-5606,PAYLOAD,2024-04-15 13:18:55,14.9833774,0.0002973,70.0015,172.284,266.8195,93.2624,5.7283e-05,5.91e-06,0.0,0 STARLINK-5606,1 55767U 23028AC  24106.55481254  .00000591  00000-0  57283-4 0  9996,2 55767  70.0015 172.2840 0002973 266.8195  93.2624 14.98337740 62704,6950.169,96.107,574.1,569.968,0.0
55767.0,STARLINK-5606,PAYLOAD,2024-04-16 05:20:16,14.98326123,0.0002519,70.002,170.6009,262.1785,97.9088,7.8858e-05,8.48e-06,0.0,0 STARLINK-5606,1 55767U 23028AC  24107.22241829  .00000848  00000-0  78858-4 0  9999,2 55767  70.0020 170.6009 0002519 262.1785  97.9088 14.98326123 62796,6950.205,96.107,573.821,570.319,0.0
55767.0,STARLINK-5606,PAYLOAD,2024-04-16 13:20:57,14.9832695,0.0002491,70.0017,169.7589,259.3529,100.7349,7.7741e-05,8.35e-06,0.0,0 STARLINK-5606,1 55767U 23028AC  24107.55621832  .00000835  00000-0  77741-4 0  9997,2 55767  70.0017 169.7589 0002491 259.3529 100.7349 14.98326950 62855,6950.202,96.107,573.799,570.336,0.0
55767.0,STARLINK-5606,PAYLOAD,2024-04-17 11:46:50,14.98323819,0.0002587,70.0014,167.4027,263.7411,96.3453,-7.9129e-05,-1.037e-05,0.0,0 STARLINK-5606,1 55767U 23028AC  24108.49086575 -.00001037  00000-0 -79129-4 0  9999,2 55767  70.0014 167.4027 0002587 263.7411  96.3453 14.98323819 62980,6950.212,96.107,573.875,570.279,0.0
55767.0,STARLINK-5606,PAYLOAD,2024-04-17 13:22:58,14.98323992,0.0002622,70.0014,167.2345,264.6966,95.3894,-8.2688e-05,-1.079e-05,0.0,0 STARLINK-5606,1 55767U 23028AC  24108.55762596 -.00001079  00000-0 -82688-4 0  9990,2 55767  70.0014 167.2345 0002622 264.6966  95.3894 14.98323992 63000,6950.211,96.107,573.899,570.254,0.0
55767.0,STARLINK-5606,PAYLOAD,2024-04-17 21:23:39,14.98321726,0.0002792,70.0009,166.3918,273.715,86.369,-0.00012378,-1.569e-05,0.0,0 STARLINK-5606,1 55767U 23028AC  24108.89142967 -.00001569  00000-0 -12378-3 0  9993,2 55767  70.0009 166.3918 0002792 273.7150  86.3690 14.98321726 63056,6950.218,96.108,574.024,570.143,0.0
55767.0,STARLINK-5606,PAYLOAD,2024-04-18 11:48:52,14.98320385,0.0002763,70.0004,164.8759,266.273,93.8113,-2.2718e-05,-3.64e-06,0.0,0 STARLINK-5606,1 55767U 23028AC  24109.49227096 -.00000364  00000-0 -22718-4 0  9999,2 55767  70.0004 164.8759 0002763 266.2730  93.8113 14.98320385 63138,6950.223,96.108,574.008,570.167,0.0
55767.0,STARLINK-5606,PAYLOAD,2024-04-19 03:50:12,14.98329494,0.0003289,69.9996,163.194,274.1055,85.9728,7.6959e-05,8.25e-06,0.0,0 STARLINK-5606,1 55767U 23028AC  24110.15986373  .00000825  00000-0  76959-4 0  9990,2 55767  69.9996 163.1940 0003289 274.1055  85.9728 14.98329494 63236,6950.194,96.107,574.345,569.774,0.0
55767.0,STARLINK-5606,PAYLOAD,2024-04-19 10:14:43,14.98334457,0.0003006,69.9998,162.5195,268.4997,91.5817,0.00017889,2.042e-05,0.0,0 STARLINK-5606,1 55767U 23028AC  24110.42689731  .00002042  00000-0  17889-3 0  9997,2 55767  69.9998 162.5195 0003006 268.4997  91.5817 14.98334457 63272,6950.179,96.107,574.133,569.955,0.0
55767.0,STARLINK-5606,PAYLOAD,2024-04-19 13:27:00,14.98321581,0.0002959,70.0011,162.1842,277.2571,82.8252,0.00046879,5.504e-05,0.0,0 STARLINK-5606,1 55767U 23028AC  24110.56041862  .00005504  00000-0  46879-3 0  9996,2 55767  70.0011 162.1842 0002959 277.2571  82.8252 14.98321581 63302,6950.219,96.108,574.14,570.027,0.0
